NORAD_CAT_ID,OBJECT_NAME,OBJECT_TYPE,EPOCH,MEAN_MOTION,ECCENTRICITY,INCLINATION,RA_OF_ASC_NODE,ARG_OF_PERICENTER,MEAN_ANOMALY,BSTAR,MEAN_MOTION_DOT,MEAN_MOTION_DDOT,TLE_LINE0,TLE_LINE1,TLE_LINE2,SEMIMAJOR_AXIS,PERIOD,APOGEE,PERIGEE,DECAYED
53775.0,STARLINK-4722,PAYLOAD,2023-03-12 14:25:48,15.0885705,0.0001505,53.2173,141.4196,104.1661,255.9499,2.7912e-05,1.56e-06,0.0,0 STARLINK-4722,1 53775U 22111C   23071.60125838  .00000156  00000-0  27912-4 0  9997,2 53775  53.2173 141.4196 0001505 104.1661 255.9499 15.08857050 27861,6917.828,95.436,540.734,538.652,0.0
53775.0,STARLINK-4722,PAYLOAD,2023-03-13 04:44:18,15.08835749,0.0001499,53.217,138.7361,116.6987,243.4159,1.8227e-05,2e-08,0.0,0 STARLINK-4722,1 53775U 22111C   23072.19743328  .00000002  00000-0  18227-4 0  9991,2 53775  53.2170 138.7361 0001499 116.6987 243.4159 15.08835749 27958,6917.893,95.438,540.795,538.721,0.0
53775.0,STARLINK-4722,PAYLOAD,2023-03-13 07:55:04,15.08839512,0.0002217,53.216,138.147,113.9253,246.1971,0.00011293,1.509e-05,0.0,0 STARLINK-4722,1 53775U 22111C   23072.32990892  .00001509  00000-0  11293-3 0  9994,2 53775  53.2160 138.1470 0002217 113.9253 246.1971 15.08839512 28783,6917.882,95.438,541.281,538.213,0.0
53775.0,STARLINK-4722,PAYLOAD,2023-03-13 23:48:56,15.08831229,0.0001648,53.2176,135.1796,89.5586,270.5595,-6.3391e-06,-3.89e-06,0.0,0 STARLINK-4722,1 53775U 22111C   23072.99231908 -.00000389  00000-0 -63391-5 0  9998,2 53775  53.2176 135.1796 0001648  89.5586 270.5595 15.08831229 28074,6917.907,95.438,540.912,538.632,0.0
53775.0,STARLINK-4722,PAYLOAD,2023-03-14 14:07:24,15.08841601,0.0001443,53.2175,132.4958,100.2917,259.8238,-0.00010002,-1.879e-05,0.0,0 STARLINK-4722,1 53775U 22111C   23073.58847745 -.00001879  00000-0 -10002-3 0  9990,2 53775  53.2175 132.4958 0001443 100.2917 259.8238 15.08841601 28973,6917.875,95.437,540.739,538.742,0.0
53775.0,STARLINK-4722,PAYLOAD,2023-03-14 20:28:56,15.08846369,0.000139,53.2179,131.3084,82.0837,278.0313,-7.8704e-05,-1.541e-05,0.0,0 STARLINK-4722,1 53775U 22111C   23073.85343343 -.00001541  00000-0 -78704-4 0  9995,2 53775  53.2179 131.3084 0001390  82.0837 278.0313 15.08846369 28203,6917.861,95.437,540.688,538.764,0.0
53775.0,STARLINK-4722,PAYLOAD,2023-03-15 12:22:45,15.08871003,0.0001428,53.2178,128.3367,89.2706,270.845,0.00013977,1.939e-05,0.0,0 STARLINK-4722,1 53775U 22111C   23074.51580682  .00001939  00000-0  13977-3 0  9997,2 53775  53.2178 128.3367 0001428  89.2706 270.8450 15.08871003 28304,6917.786,95.436,540.638,538.663,0.0
53775.0,STARLINK-4722,PAYLOAD,2023-03-15 20:19:44,15.08822859,0.0001454,53.2169,126.8493,91.5946,268.5213,-5.6498e-05,-1.187e-05,0.0,0 STARLINK-4722,1 53775U 22111C   23074.84704036 -.00001187  00000-0 -56498-4 0  9997,2 53775  53.2169 126.8493 0001454  91.5946 268.5213 15.08822859 28359,6917.933,95.439,540.804,538.792,0.0
53775.0,STARLINK-4722,PAYLOAD,2023-03-16 12:13:35,15.08830252,0.0001483,53.2182,123.8757,87.0142,273.102,-9.0715e-05,-1.731e-05,0.0,0 STARLINK-4722,1 53775U 22111C   23075.50944337 -.00001731  00000-0 -90715-4 0  9996,2 53775  53.2182 123.8757 0001483  87.0142 273.1020 15.08830252 29269,6917.91,95.438,540.801,538.749,0.0
53775.0,STARLINK-4722,PAYLOAD,2023-03-16 20:10:32,15.0882088,0.0001844,53.218,122.3867,77.5393,282.5806,-0.00014704,-2.626e-05,0.0,0 STARLINK-4722,1 53775U 22111C   23075.84065357 -.00002626  00000-0 -14704-3 0  9996,2 53775  53.2180 122.3867 0001844  77.5393 282.5806 15.08820880 29314,6917.939,95.439,541.079,538.528,0.0
53775.0,STARLINK-4722,PAYLOAD,2023-03-17 02:32:05,15.08822632,0.0001284,53.2171,121.1995,68.5092,291.6037,-0.00017461,-3.064e-05,0.0,0 STARLINK-4722,1 53775U 22111C   23076.10561345 -.00003064  00000-0 -17461-3 0  9994,2 53775  53.2171 121.1995 0001284  68.5092 291.6037 15.08822632 28545,6917.933,95.439,540.687,538.91,0.0
53775.0,STARLINK-4722,PAYLOAD,2023-03-17 10:29:00,15.08838845,0.0001108,53.2171,119.7132,91.4934,268.6185,-0.00028226,-4.777e-05,0.0,0 STARLINK-4722,1 53775U 22111C   23076.43680960 -.00004777  00000-0 -28226-3 0  9998,2 53775  53.2171 119.7132 0001108  91.4934 268.6185 15.08838845 28592,6917.884,95.438,540.515,538.982,0.0
53775.0,STARLINK-4722,PAYLOAD,2023-03-17 20:01:18,15.08849346,0.0001112,53.2175,117.929,91.11,269.002,-0.00017334,-3.046e-05,0.0,0 STARLINK-4722,1 53775U 22111C   23076.83423872 -.00003046  00000-0 -17334-3 0  9995,2 53775  53.2175 117.9290 0001112  91.1100 269.0020 15.08849346 28656,6917.852,95.437,540.486,538.948,0.0
53775.0,STARLINK-4722,PAYLOAD,2023-03-18 11:55:08,15.08848189,9.74e-05,53.2172,114.9548,85.1446,274.9657,0.00020649,3.001e-05,0.0,0 STARLINK-4722,1 53775U 22111C   23077.49662702  .00003001  00000-0  20649-3 0  9997,2 53775  53.2172 114.9548 0000974  85.1446 274.9657 15.08848189 28753,6917.855,95.437,540.394,539.047,0.0
53775.0,STARLINK-4722,PAYLOAD,2023-03-18 19:52:04,15.08843453,8.89e-05,53.2171,113.4679,74.87,285.239,4.2947e-05,3.96e-06,0.0,0 STARLINK-4722,1 53775U 22111C   23077.82783449  .00000396  00000-0  42947-4 0  9996,2 53775  53.2171 113.4679 0000889  74.8700 285.2390 15.08843453 28808,6917.87,95.437,540.35,539.12,0.0
53775.0,STARLINK-4722,PAYLOAD,2023-03-19 08:35:10,15.08832311,0.0001041,53.2168,111.0892,81.8756,278.2355,0.00013597,1.876e-05,0.0,0 STARLINK-4722,1 53775U 22111C   23078.35776022  .00001876  00000-0  13597-3 0  9996,2 53775  53.2168 111.0892 0001041  81.8756 278.2355 15.08832311 29697,6917.904,95.438,540.489,539.049,0.0
53775.0,STARLINK-4722,PAYLOAD,2023-03-19 19:42:52,15.0883347,0.0001154,53.2164,109.008,82.1594,277.9529,-2.9005e-05,-7.49e-06,0.0,0 STARLINK-4722,1 53775U 22111C   23078.82144466 -.00000749  00000-0 -29005-4 0  9991,2 53775  53.2164 109.0080 0001154  82.1594 277.9529 15.08833470 28952,6917.9,95.438,540.564,538.967,0.0
53775.0,STARLINK-4722,PAYLOAD,2023-03-20 08:25:57,15.08847293,0.0001115,53.2167,106.6277,88.436,271.676,-0.00011947,-2.189e-05,0.0,0 STARLINK-4722,1 53775U 22111C   23079.35135874 -.00002189  00000-0 -11947-3 0  9998,2 53775  53.2167 106.6277 0001115  88.4360 271.6760 15.08847293 29039,6917.858,95.437,540.494,538.952,0.0
53775.0,STARLINK-4722,PAYLOAD,2023-03-21 06:41:21,15.088341,0.0001374,53.2169,102.4637,94.2607,265.8542,-5.674e-05,-1.191e-05,0.0,0 STARLINK-4722,1 53775U 22111C   23080.27872428 -.00001191  00000-0 -56740-4 0  9997,2 53775  53.2169 102.4637 0001374  94.2607 265.8542 15.08834100 29172,6917.898,95.438,540.714,538.813,0.0
53775.0,STARLINK-4722,PAYLOAD,2023-03-21 11:27:30,15.08840336,0.0001363,53.2172,101.5712,93.5908,266.524,-7.4005e-05,-1.466e-05,0.0,0 STARLINK-4722,1 53775U 22111C   23080.47744155 -.00001466  00000-0 -74005-4 0  9993,2 53775  53.2172 101.5712 0001363  93.5908 266.5240 15.08840336 30010,6917.879,95.438,540.687,538.801,0.0
53775.0,STARLINK-4722,PAYLOAD,2023-03-22 12:53:40,15.08841247,0.0001393,53.2182,96.8139,95.0318,265.0833,5.3747e-05,5.68e-06,0.0,0 STARLINK-4722,1 53775U 22111C   23081.53727957  .00000568  00000-0  53747-4 0  9992,2 53775  53.2182  96.8139 0001393  95.0318 265.0833 15.08841247 29365,6917.877,95.437,540.705,538.778,0.0
53775.0,STARLINK-4722,PAYLOAD,2023-03-23 11:09:05,15.08835764,0.0001641,53.2186,92.6477,113.1125,247.004,3.5439e-05,2.76e-06,0.0,0 STARLINK-4722,1 53775U 22111C   23082.46464432  .00000276  00000-0  35439-4 0  9995,2 53775  53.2186  92.6477 0001641 113.1125 247.0040 15.08835764 29505,6917.893,95.438,540.894,538.623,0.0
53775.0,STARLINK-4722,PAYLOAD,2023-03-23 17:30:37,15.08838735,0.0001479,53.2188,91.4605,88.8247,271.2914,4.2667e-05,3.91e-06,0.0,0 STARLINK-4722,1 53775U 22111C   23082.72960340  .00000391  00000-0  42667-4 0  9992,2 53775  53.2188  91.4605 0001479  88.8247 271.2914 15.08838735 30354,6917.884,95.438,540.772,538.726,0.0
53775.0,STARLINK-4722,PAYLOAD,2023-03-24 12:35:14,15.08855566,0.0001511,53.218,87.8912,129.4528,230.6598,0.00011103,1.48e-05,0.0,0 STARLINK-4722,1 53775U 22111C   23083.52446788  .00001480  00000-0  11103-3 0  9996,2 53775  53.2180  87.8912 0001511 129.4528 230.6598 15.08855566 29667,6917.833,95.437,540.743,538.653,0.0
53775.0,STARLINK-4722,PAYLOAD,2023-03-24 17:21:26,15.08821655,0.0001706,53.2187,87.0002,100.6196,259.4988,-0.00017323,-3.043e-05,0.0,0 STARLINK-4722,1 53775U 22111C   23083.72322101 -.00003043  00000-0 -17323-3 0  9999,2 53775  53.2187  87.0002 0001706 100.6196 259.4988 15.08821655 29691,6917.936,95.439,540.982,538.621,0.0
53775.0,STARLINK-4722,PAYLOAD,2023-03-25 06:04:30,15.08830042,8.75e-05,53.2186,84.6248,114.6531,245.4553,-0.00014452,-2.586e-05,0.0,0 STARLINK-4722,1 53775U 22111C   23084.25313635 -.00002586  00000-0 -14452-3 0  9991,2 53775  53.2186  84.6248 0000875 114.6531 245.4553 15.08830042 29771,6917.911,95.438,540.381,539.171,0.0
53775.0,STARLINK-4722,PAYLOAD,2023-03-25 17:12:12,15.08837241,9.84e-05,53.2173,82.5428,90.7175,269.393,-0.00010508,-1.96e-05,0.0,0 STARLINK-4722,1 53775U 22111C   23084.71681193 -.00001960  00000-0 -10508-3 0  9992,2 53775  53.2173  82.5428 0000984  90.7175 269.3930 15.08837241 29843,6917.889,95.438,540.435,539.073,0.0
53775.0,STARLINK-4722,PAYLOAD,2023-03-26 09:06:03,15.08847516,0.0001002,53.2178,79.5678,92.7659,267.3447,-2.0341e-05,-6.12e-06,0.0,0 STARLINK-4722,1 53775U 22111C   23085.37920435 -.00000612  00000-0 -20341-4 0  9990,2 53775  53.2178  79.5678 0001002  92.7659 267.3447 15.08847516 29940,6917.857,95.437,540.416,539.029,0.0
53775.0,STARLINK-4722,PAYLOAD,2023-03-26 17:02:58,15.08848688,0.0001042,53.2179,78.0819,88.6589,271.4522,-9.0799e-05,-1.733e-05,0.0,0 STARLINK-4722,1 53775U 22111C   23085.71040495 -.00001733  00000-0 -90799-4 0  9996,2 53775  53.2179  78.0819 0001042  88.6589 271.4522 15.08848688 30800,6917.854,95.437,540.44,538.998,0.0
53775.0,STARLINK-4722,PAYLOAD,2023-03-27 04:10:41,15.08830767,8.68e-05,53.2181,76.0005,93.9479,266.1612,8.8196e-05,1.116e-05,0.0,0 STARLINK-4722,1 53775U 22111C   23086.17409092  .00001116  00000-0  88196-4 0  9990,2 53775  53.2181  76.0005 0000868  93.9479 266.1612 15.08830767 30068,6917.909,95.438,540.374,539.173,0.0
